BEIDOU-2 IGSO-1 (C06)   
1 36828U 10036A   23129.37447315 -.00000071  00000+0  00000+0 0  9995
2 36828  54.2076 173.2547 0035634 192.8270 102.4305  1.00256852 46848
BEIDOU-2 G4 (C04)       
1 37210U 10057A   23128.64129250 -.00000103  00000+0  00000+0 0  9994
2 37210   0.9342  52.4871 0000815 100.5269 104.0843  1.00272364 45898
BEIDOU-2 IGSO-2 (C07)   
1 37256U 10068A   23128.86299188 -.00000204  00000+0  00000+0 0  9990
2 37256  49.6268 285.7330 0025095 200.0196 159.5218  1.00264488 45404
BEIDOU-2 IGSO-3 (C08)   
1 37384U 11013A   23128.34533711 -.00000196  00000+0  00000+0 0  9999
2 37384  60.7676  51.0565 0022182 185.1326 221.0643  1.00269210 44289
BEIDOU-2 IGSO-4 (C09)   
1 37763U 11038A   23128.48385549  .00000035  00000+0  00000+0 0  9997
2 37763  54.4846 175.7847 0109373 229.1569  88.0936  1.00256829 43256
BEIDOU-2 IGSO-5 (C10)   
1 37948U 11073A   23128.18701781 -.00000152  00000+0  00000+0 0  9999
2 37948  49.7489 285.3995 0086652 218.5198 243.7479  1.00259935 42013
BEIDOU-2 G5 (C05)       
1 38091U 12008A   23128.93035734  .00000065  00000+0  00000+0 0  9991
2 38091   1.4403  65.4716 0004960 279.9015 274.8355  1.00267440 41098
BEIDOU-2 M3 (C11)       
1 38250U 12018A   23127.28676875 -.00000061  00000+0  00000+0 0  9990
2 38250  56.5714 342.8485 0020828 262.1741 343.4099  1.86231302 75117
BEIDOU-2 M4 (C12)       
1 38251U 12018B   23128.22946374 -.00000062  00000+0  00000+0 0  9991
2 38251  56.4836 342.1194 0011723 267.6096 295.3050  1.86234342 75130
BEIDOU-2 M6 (C14)       
1 38775U 12050B   23129.40734734  .00000039  00000+0  00000+0 0  9997
2 38775  55.6108 100.7231 0015164 324.8777 142.4844  1.86231377 72538
BEIDOU-2 G6 (C02)       
1 38953U 12059A   23128.82341144 -.00000168  00000+0  00000+0 0  9992
2 38953   1.7348  82.2128 0011326 309.0697 215.6389  1.00271385 38667
BEIDOU-3S IGSO-1S (C31) 
1 40549U 15019A   23128.46733365 -.00000177  00000+0  00000+0 0  9995
2 40549  51.3126 308.9606 0036969 191.0704 350.5754  1.00283374 29692
BEIDOU-3S M2S (C57)     
1 40748U 15037A   23128.59678968 -.00000063  00000+0  00000+0 0  9991
2 40748  55.7271 340.7745 0005507  32.4677 325.6880  1.86233447 52960
BEIDOU-3S M1S (C58)     
1 40749U 15037B   23128.40049343 -.00000062  00000+0  00000+0 0  9990
2 40749  55.7304 340.7719 0005590 354.5338   5.9313  1.86233059 52961
BEIDOU-3S IGSO-2S (C56) 
1 40938U 15053A   23129.29835301 -.00000138  00000+0  00000+0 0  9997
2 40938  50.9947 272.1110 0046389 193.0997 324.7453  1.00263838 27965
BEIDOU-2 IGSO-6 (C13)   
1 41434U 16021A   23128.28925150 -.00000165  00000+0  00000+0 0  9995
2 41434  58.5784  49.4843 0046735 225.9781 149.1299  1.00262813 26091
BEIDOU-2 G7 (C03)       
1 41586U 16037A   23129.23099660 -.00000347  00000+0  00000+0 0  9996
2 41586   1.6025  66.1016 0009738 353.3386   1.0248  1.00267331 25407
BEIDOU-3 M1 (C19)       
1 43001U 17069A   23127.63250279  .00000036  00000+0  00000+0 0  9997
2 43001  55.7615 100.8267 0012573 296.2365 217.6991  1.86231731 37438
BEIDOU-3 M2 (C20)       
1 43002U 17069B   23128.74520116  .00000038  00000+0  00000+0 0  9993
2 43002  55.7622 100.8244 0010436 313.2460 269.3466  1.86231282 37447
BEIDOU-3 M7 (C27)       
1 43107U 18003A   23128.54232892 -.00000065  00000+0  00000+0 0  9998
2 43107  55.1824 341.5506 0005576  56.8116 196.4969  1.86232468 36201
BEIDOU-3 M8 (C28)       
1 43108U 18003B   23128.47509628 -.00000064  00000+0  00000+0 0  9994
2 43108  55.1761 341.5402 0002222 277.7986 332.5133  1.86230987 36201
BEIDOU-3 M4 (C22)       
1 43207U 18018A   23127.47064301  .00000036  00000+0  00000+0 0  9991
2 43207  55.7200 100.9347 0007338 327.9614  31.9634  1.86231549 35579
BEIDOU-3 M3 (C21)       
1 43208U 18018B   23126.46331737  .00000038  00000+0  00000+0 0  9992
2 43208  55.7183 100.9717 0010336 303.4270  56.4448  1.86231554 35559
BEIDOU-3 M9 (C29)       
1 43245U 18029A   23128.12040880 -.00000062  00000+0  00000+0 0  9994
2 43245  55.0820 339.3089 0001129  32.2294 208.8896  1.86232657 34738
BEIDOU-3 M10 (C30)      
1 43246U 18029B   23128.60964110 -.00000063  00000+0  10000-3 0  9995
2 43246  55.0790 339.3211 0004916  14.8807 241.0429  1.86233065 34730
BEIDOU-2 IGSO-7 (C16)   
1 43539U 18057A   23127.66208273 -.00000061  00000+0  00000+0 0  9990
2 43539  55.0997 172.8814 0060514 230.5901 172.4895  1.00267531 17760
BEIDOU-3 M5 (C23)       
1 43581U 18062A   23128.95426294  .00000029  00000+0  00000+0 0  9994
2 43581  54.1975 220.9531 0002924 274.4190  64.4797  1.86232020 32488
BEIDOU-3 M6 (C24)       
1 43582U 18062B   23128.41083578  .00000033  00000+0  00000+0 0  9995
2 43582  54.1967 220.9607 0004736  19.9045  45.5850  1.86229527 32486
BEIDOU-3 M12 (C26)      
1 43602U 18067A   23129.43411244  .00000025  00000+0  00000+0 0  9992
2 43602  54.2822 219.5707 0006880  18.0873  55.3370  1.86231835 31992
BEIDOU-3 M11 (C25)      
1 43603U 18067B   23128.37584744  .00000035  00000+0  00000+0 0  9992
2 43603  54.2799 219.5723 0003939  10.4263 343.7687  1.86231663 31988
BEIDOU-3 M13 (C32)      
1 43622U 18072A   23127.35526382  .00000035  00000+0  00000+0 0  9990
2 43622  55.6891 100.4825 0009170 292.0953 125.9540  1.86231610 31480
BEIDOU-3 M14 (C33)      
1 43623U 18072B   23127.27147892  .00000035  00000+0  00000+0 0  9997
2 43623  55.6906 100.4780 0006820 309.5602 142.5558  1.86231619 31485
BEIDOU-3 M16 (C35)      
1 43647U 18078A   23129.22933679 -.00000064  00000+0  10000-3 0  9990
2 43647  54.9775 339.4029 0008420  15.1234 202.7603  1.86227511 31022
BEIDOU-3 M15 (C34)      
1 43648U 18078B   23128.33342962 -.00000063  00000+0  00000+0 0  9995
2 43648  54.9738 339.4382 0005389  26.2056 221.3228  1.86232276 31024
BEIDOU-3 G1 (C59)       
1 43683U 18085A   23128.76646648 -.00000268  00000+0  00000+0 0  9994
2 43683   1.2678 133.5200 0004388 310.0198 198.7137  1.00275667 16679
BEIDOU-3 M17 (C36)      
1 43706U 18093A   23127.57634629  .00000037  00000+0  00000+0 0  9996
2 43706  54.2783 220.9101 0008876 276.0557  83.8930  1.86231895 30352
BEIDOU-3 M18 (C37)      
1 43707U 18093B   23128.46496897  .00000033  00000+0  00000+0 0  9995
2 43707  54.2796 220.8697 0006709 308.9449  17.6444  1.86229856 30375
BEIDOU-3 IGSO-1 (C38)   
1 44204U 19023A   23128.68799428 -.00000228  00000+0  00000+0 0  9999
2 44204  57.0459  49.4987 0018859 207.2118 336.1022  1.00264763 14976
BEIDOU-2 G8 (C01)       
1 44231U 19027A   23126.52763464 -.00000232  00000+0  00000+0 0  9990
2 44231   1.6560  81.0278 0004292 131.1477 346.4082  1.00268544 14665
BEIDOU-3 IGSO-2 (C39)   
1 44337U 19035A   23128.51994069 -.00000072  00000+0  00000+0 0  9996
2 44337  55.1389 168.8370 0030552 201.0059 161.6210  1.00258066 14313
BEIDOU-3 M24 (C46)      
1 44542U 19061A   23127.51348689  .00000038  00000+0  00000+0 0  9994
2 44542  54.5054 221.1180 0007258 345.3627  14.6653  1.86231139 24624
BEIDOU-3 M23 (C45)      
1 44543U 19061B   23128.71021544  .00000031  00000+0  00000+0 0  9999
2 44543  54.5043 221.0454 0004330 338.2212  15.8937  1.86231682 24637
BEIDOU-3 IGSO-3 (C40)   
1 44709U 19073A   23128.67462831 -.00000186  00000+0  00000+0 0  9991
2 44709  56.7404 292.9889 0030583 177.1423 117.6378  1.00263877 13059
BEIDOU-3 M22 (C44)      
1 44793U 19078A   23127.63469701 -.00000062  00000+0  10000-3 0  9995
2 44793  54.8272 339.4394 0007308  21.9686 163.2881  1.86232172 23480
BEIDOU-3 M21 (C43)      
1 44794U 19078B   23128.29563178 -.00000063  00000+0  00000+0 0  9998
2 44794  54.8004 339.4015 0005178  19.4992 161.1332  1.86232686 23498
BEIDOU-3 M19 (C41)      
1 44864U 19090A   23128.54647494  .00000037  00000+0  00000+0 0  9992
2 44864  55.6237 100.6356 0019717 276.9883 265.8726  1.86231876 23086
BEIDOU-3 M20 (C42)      
1 44865U 19090B   23128.35739773  .00000036  00000+0  00000+0 0  9993
2 44865  55.6259 100.6748 0017682 288.9999 216.9035  1.86231824 23056
BEIDOU-3 G2 (C60)       
1 45344U 20017A   23128.70448745 -.00000132  00000+0  00000+0 0  9990
2 45344   2.0025   9.8259 0002940  78.5131 111.5568  1.00269979 11871
BEIDOU-3 G3 (C61)       
1 45807U 20040A   23128.89702181 -.00000346  00000+0  00000+0 0  9994
2 45807   0.7719 324.3113 0005614 326.0624   9.5949  1.00268853 10680
